{"type": "FeatureCollection", "features": [ {"type": "Feature", "properties": {"norad_id": 32289, "name": "YAOGAN-3", "group": "resource", "lat": -16.358864309185737, "lon": 20.880182655438706, "alt_km": 603.1440470154557, "timestamp": "2025-12-17T23:38:06.519687+00:00", "meta": {"OBJECT_NAME": "YAOGAN-3", "OBJECT_ID": "2007-055A", "EPOCH": "2025-12-17T15:38:59.400096", "MEAN_MOTION": 14.89884656, "ECCENTRICITY": 0.0001342, "INCLINATION": 97.8368, "RA_OF_ASC_NODE": 18.2334, "ARG_OF_PERICENTER": 72.1739, "MEAN_ANOMALY": 287.9625, "EPHEMERIS_TYPE": 0, "CLASSIFICATION_TYPE": "U", "NORAD_CAT_ID": 32289, "ELEMENT_SET_NO": 999, "REV_AT_EPOCH": 97882, "BSTAR": 0.00022826508, "MEAN_MOTION_DOT": 2.139e-05, "MEAN_MOTION_DDOT": 0}, "tle": {"line1": "1 32289U 07055A   25351.65207639  .00002139  00000+0  22827-3 0  9993", "line2": "2 32289  97.8368  18.2334 0001342  72.1739 287.9625 14.89884656978829"}}, "geometry": {"type": "Point", "coordinates": [20.880182655438706, -16.358864309185737]}}, {"type": "Feature", "properties": {"norad_id": 32376, "name": "COSMO-SKYMED 2", "group": "resource", "lat": 61.751258399259164, "lon": 8.16826594574421, "alt_km": 615.7697792910476, "timestamp": "2025-12-17T23:38:06.519698+00:00", "meta": {"OBJECT_NAME": "COSMO-SKYMED 2", "OBJECT_ID": "2007-059A", "EPOCH": "2025-12-17T15:00:25.861248", "MEAN_MOTION": 14.82148551, "ECCENTRICITY": 0.00013585, "INCLINATION": 97.8804, "RA_OF_ASC_NODE": 172.8756, "ARG_OF_PERICENTER": 83.1316, "MEAN_ANOMALY": 277.0052, "EPHEMERIS_TYPE": 0, "CLASSIFICATION_TYPE": "U", "NORAD_CAT_ID": 32376, "ELEMENT_SET_NO": 999, "REV_AT_EPOCH": 97510, "BSTAR": 6.4743704e-05, "MEAN_MOTION_DOT": 4.63e-06, "MEAN_MOTION_DDOT": 0}, "tle": {"line1": "1 32376U 07059A   25351.62529932  .00000463  00000+0  64744-4 0  9997", "line2": "2 32376  97.8804 172.8756 0001358  83.1316 277.0052 14.82148551975108"}}, "geometry": {"type": "Point", "coordinates": [8.16826594574421, 61.751258399259164]}}, {"type": "Feature", "properties": {"norad_id": 32382, "name": "RADARSAT-2", "group": "resource", "lat": 17.04858731240715, "lon": 179.15257108298297, "alt_km": 792.1177607944419, "timestamp": "2025-12-17T23:38:06.519708+00:00", "meta": {"OBJECT_NAME": "RADARSAT-2", "OBJECT_ID": "2007-061A", "EPOCH": "2025-12-17T14:28:50.273760", "MEAN_MOTION": 14.2998334, "ECCENTRICITY": 0.00011176, "INCLINATION": 98.5796, "RA_OF_ASC_NODE": 356.1232, "ARG_OF_PERICENTER": 84.0995, "MEAN_ANOMALY": 276.0315, "EPHEMERIS_TYPE": 0, "CLASSIFICATION_TYPE": "U", "NORAD_CAT_ID": 32382, "ELEMENT_SET_NO": 999, "REV_AT_EPOCH": 94000, "BSTAR": 5.2931066e-05, "MEAN_MOTION_DOT": 9.3e-07, "MEAN_MOTION_DDOT": 0}, "tle": {"line1": "1 32382U 07061A   25351.60335965  .00000093  00000+0  52931-4 0  9990", "line2": "2 32382  98.5796 356.1232 0001117  84.0995 276.0315 14.29983340940001"}}, "geometry": {"type": "Point", "coordinates": [179.15257108298297, 17.04858731240715]}}, {"type": "Feature", "properties": {"norad_id": 32783, "name": "CARTOSAT-2A", "group": "resource", "lat": -16.163370281140537, "lon": -140.63020069832157, "alt_km": 644.6195648425819, "timestamp": "2025-12-17T23:38:06.519718+00:00", "meta": {"OBJECT_NAME": "CARTOSAT-2A", "OBJECT_ID": "2008-021A", "EPOCH": "2025-12-17T14:37:53.397984", "MEAN_MOTION": 14.78945412, "ECCENTRICITY": 0.00115359, "INCLINATION": 97.793, "RA_OF_ASC_NODE": 41.2812, "ARG_OF_PERICENTER": 348.8579, "MEAN_ANOMALY": 11.2376, "EPHEMERIS_TYPE": 0, "CLASSIFICATION_TYPE": "U", "NORAD_CAT_ID": 32783, "ELEMENT_SET_NO": 999, "REV_AT_EPOCH": 95196, "BSTAR": 5.3907043e-05, "MEAN_MOTION_DOT": 3.48e-06, "MEAN_MOTION_DDOT": 0}, "tle": {"line1": "1 32783U 08021A   25351.60964581  .00000348  00000+0  53907-4 0  9991", "line2": "2 32783  97.7930  41.2812 0011535 348.8579  11.2376 14.78945412951962"}}, "geometry": {"type": "Point", "coordinates": [-140.63020069832157, -16.163370281140537]}}, {"type": "Feature", "properties": {"norad_id": 33320, "name": "HUANJING 1A (HJ-1A)", "group": "resource", "lat": 33.67467751489366, "lon": 165.204848637041, "alt_km": 625.0561720268406, "timestamp": "2025-12-17T23:38:06.519729+00:00", "meta": {"OBJECT_NAME": "HUANJING 1A (HJ-1A)", "OBJECT_ID": "2008-041A", "EPOCH": "2025-12-17T14:53:10.877856", "MEAN_MOTION": 14.83410961, "ECCENTRICITY": 0.00198863, "INCLINATION": 97.6536, "RA_OF_ASC_NODE": 339.7152, "ARG_OF_PERICENTER": 19.0249, "MEAN_ANOMALY": 341.1704, "EPHEMERIS_TYPE": 0, "CLASSIFICATION_TYPE": "U", "NORAD_CAT_ID": 33320, "ELEMENT_SET_NO": 999, "REV_AT_EPOCH": 93148, "BSTAR": 0.00016019991, "MEAN_MOTION_DOT": 1.268e-05, "MEAN_MOTION_DDOT": 0}, "tle": {"line1": "1 33320U 08041A   25351.62026479  .00001268  00000+0  16020-3 0  9994", "line2": "2 33320  97.6536 339.7152 0019886  19.0249 341.1704 14.83410961931488"}}, "geometry": {"type": "Point", "coordinates": [165.204848637041, 33.67467751489366]}}, {"type": "Feature", "properties": {"norad_id": 33321, "name": "HUANJING 1B (HJ-1B)", "group": "resource", "lat": -4.5190151884018, "lon": -15.644238920593557, "alt_km": 611.9778464220062, "timestamp": "2025-12-17T23:38:06.519739+00:00", "meta": {"OBJECT_NAME": "HUANJING 1B (HJ-1B)", "OBJECT_ID": "2008-041B", "EPOCH": "2025-12-17T15:33:28.805184", "MEAN_MOTION": 14.82832485, "ECCENTRICITY": 0.00381449, "INCLINATION": 97.6397, "RA_OF_ASC_NODE": 343.4263, "ARG_OF_PERICENTER": 60.1026, "MEAN_ANOMALY": 300.3969, "EPHEMERIS_TYPE": 0, "CLASSIFICATION_TYPE": "U", "NORAD_CAT_ID": 33321, "ELEMENT_SET_NO": 999, "REV_AT_EPOCH": 93150, "BSTAR": 6.6546407e-05, "MEAN_MOTION_DOT": 4.94e-06, "MEAN_MOTION_DDOT": 0}, "tle": {"line1": "1 33321U 08041B   25351.64825006  .00000494  00000+0  66546-4 0  9999", "line2": "2 33321  97.6397 343.4263 0038144  60.1026 300.3969 14.82832485931508"}}, "geometry": {"type": "Point", "coordinates": [-15.644238920593557, -4.5190151884018]}}, {"type": "Feature", "properties": {"norad_id": 33331, "name": "GEOEYE 1", "group": "resource", "lat": 1.4255025476200234, "lon": 62.99588961228146, "alt_km": 681.1127400394662, "timestamp": "2025-12-17T23:38:06.519749+00:00", "meta": {"OBJECT_NAME": "GEOEYE 1", "OBJECT_ID": "2008-042A", "EPOCH": "2025-12-17T15:25:51.345696", "MEAN_MOTION": 14.6470702, "ECCENTRICITY": 0.00027717, "INCLINATION": 98.1249, "RA_OF_ASC_NODE": 62.8621, "ARG_OF_PERICENTER": 264.033, "MEAN_ANOMALY": 96.0557, "EPHEMERIS_TYPE": 0, "CLASSIFICATION_TYPE": "U", "NORAD_CAT_ID": 33331, "ELEMENT_SET_NO": 999, "REV_AT_EPOCH": 92357, "BSTAR": 0.00010309192, "MEAN_MOTION_DOT": 5.01e-06, "MEAN_MOTION_DDOT": 0}, "tle": {"line1": "1 33331U 08042A   25351.64295539  .00000501  00000+0  10309-3 0  9997", "line2": "2 33331  98.1249  62.8621 0002771 264.0330  96.0557 14.64707020923577"}}, "geometry": {"type": "Point", "coordinates": [62.99588961228146, 1.4255025476200234]}}, {"type": "Feature", "properties": {"norad_id": 33396, "name": "THEOS", "group": "resource", "lat": 79.25182975274227, "lon": -77.3307542630984, "alt_km": 816.8011961303373, "timestamp": "2025-12-17T23:38:06.519760+00:00", "meta": {"OBJECT_NAME": "THEOS", "OBJECT_ID": "2008-049A", "EPOCH": "2025-12-17T14:43:39.796320", "MEAN_MOTION": 14.20097153, "ECCENTRICITY": 0.00011754, "INCLINATION": 98.5869, "RA_OF_ASC_NODE": 49.5597, "ARG_OF_PERICENTER": 94.4725, "MEAN_ANOMALY": 265.6586, "EPHEMERIS_TYPE": 0, "CLASSIFICATION_TYPE": "U", "NORAD_CAT_ID": 33396, "ELEMENT_SET_NO": 999, "REV_AT_EPOCH": 89219, "BSTAR": -2.4668106e-05, "MEAN_MOTION_DOT": -9.5e-07, "MEAN_MOTION_DDOT": 0}, "tle": {"line1": "1 33396U 08049A   25351.61365505 -.00000095  00000+0 -24668-4 0  9997", "line2": "2 33396  98.5869  49.5597 0001175  94.4725 265.6586 14.20097153892194"}}, "geometry": {"type": "Point", "coordinates": [-77.3307542630984, 79.25182975274227]}}, {"type": "Feature", "properties": {"norad_id": 33412, "name": "COSMO-SKYMED 3", "group": "resource", "lat": -8.436410412257047, "lon": -156.36346978820055, "alt_km": 565.3193031064538, "timestamp": "2025-12-17T23:38:06.519770+00:00", "meta": {"OBJECT_NAME": "COSMO-SKYMED 3", "OBJECT_ID": "2008-054A", "EPOCH": "2025-12-17T14:06:05.330016", "MEAN_MOTION": 15.05403632, "ECCENTRICITY": 0.00165421, "INCLINATION": 97.8472, "RA_OF_ASC_NODE": 202.0606, "ARG_OF_PERICENTER": 156.2095, "MEAN_ANOMALY": 203.9899, "EPHEMERIS_TYPE": 0, "CLASSIFICATION_TYPE": "U", "NORAD_CAT_ID": 33412, "ELEMENT_SET_NO": 999, "REV_AT_EPOCH": 92960, "BSTAR": 0.00030862449, "MEAN_MOTION_DOT": 4.375e-05, "MEAN_MOTION_DDOT": 0}, "tle": {"line1": "1 33412U 08054A   25351.58756169  .00004375  00000+0  30862-3 0  9993", "line2": "2 33412  97.8472 202.0606 0016542 156.2095 203.9899 15.05403632929609"}}, "geometry": {"type": "Point", "coordinates": [-156.36346978820055, -8.436410412257047]}}, {"type": "Feature", "properties": {"norad_id": 33446, "name": "YAOGAN-4", "group": "resource", "lat": -80.65087771726245, "lon": 44.31512141520244, "alt_km": 621.0507972825162, "timestamp": "2025-12-17T23:38:06.519781+00:00", "meta": {"OBJECT_NAME": "YAOGAN-4", "OBJECT_ID": "2008-061A", "EPOCH": "2025-12-17T12:43:27.984864", "MEAN_MOTION": 14.82696581, "ECCENTRICITY": 0.00132888, "INCLINATION": 97.9187, "RA_OF_ASC_NODE": 281.5825, "ARG_OF_PERICENTER": 306.5713, "MEAN_ANOMALY": 53.4277, "EPHEMERIS_TYPE": 0, "CLASSIFICATION_TYPE": "U", "NORAD_CAT_ID": 33446, "ELEMENT_SET_NO": 999, "REV_AT_EPOCH": 91874, "BSTAR": 0.00015271326, "MEAN_MOTION_DOT": 1.18e-05, "MEAN_MOTION_DDOT": 0}, "tle": {"line1": "1 33446U 08061A   25351.53018501  .00001180  00000+0  15271-3 0  9992", "line2": "2 33446  97.9187 281.5825 0013288 306.5713  53.4277 14.82696581918748"}}, "geometry": {"type": "Point", "coordinates": [44.31512141520244, -80.65087771726245]}}]}